[
    {
        "Altitude(m)": 566335.4933299401,
        "Argument of Periapsis(deg)": -0.015068773855314936,
        "Eccentricity": 0.0,
        "Inclination(deg)": 97.0,
        "Latitude(deg)": 0.9510521761746122,
        "Longitude(deg)": 78.56315240658921,
        "Mean Anomaly(deg)": 178.9404955127917,
        "RAAN(deg)": 0.003964702412340513,
        "Satellite Name": "Starlink Shell 3 1609",
        "Satellite Number": 1609,
        "Semi-Major Axis(m)": 6938478.169268562,
        "Time(s)": 380
    },
    {
        "Altitude(m)": 566412.128285043,
        "Argument of Periapsis(deg)": -0.015465320535717962,
        "Eccentricity": 0.0,
        "Inclination(deg)": 97.0,
        "Latitude(deg)": 0.32664617267718554,
        "Longitude(deg)": 78.44521781413732,
        "Mean Anomaly(deg)": 179.56597171049674,
        "RAAN(deg)": 0.0040690366863494745,
        "Satellite Name": "Starlink Shell 3 1609",
        "Satellite Number": 1609,
        "Semi-Major Axis(m)": 6938478.169268562,
        "Time(s)": 390
    },
    {
        "Altitude(m)": 566493.062449206,
        "Argument of Periapsis(deg)": -0.015861867216120987,
        "Eccentricity": 0.0,
        "Inclination(deg)": 97.0,
        "Latitude(deg)": -0.29774673405754776,
        "Longitude(deg)": 78.32729419028387,
        "Mean Anomaly(deg)": 180.19144790820178,
        "RAAN(deg)": 0.004173370960358435,
        "Satellite Name": "Starlink Shell 3 1609",
        "Satellite Number": 1609,
        "Semi-Major Axis(m)": 6938478.169268562,
        "Time(s)": 400
    },
    {
        "Altitude(m)": 566578.2859241695,
        "Argument of Periapsis(deg)": -0.01625841389652401,
        "Eccentricity": 0.0,
        "Inclination(deg)": 97.0,
        "Latitude(deg)": -0.9221235474857238,
        "Longitude(deg)": 78.209363989139,
        "Mean Anomaly(deg)": 180.8169241059068,
        "RAAN(deg)": 0.004277705234367395,
        "Satellite Name": "Starlink Shell 3 1609",
        "Satellite Number": 1609,
        "Semi-Major Axis(m)": 6938478.169268562,
        "Time(s)": 410
    },
    {
        "Altitude(m)": 566667.7867333539,
        "Argument of Periapsis(deg)": -0.016654960576927034,
        "Eccentricity": 0.0,
        "Inclination(deg)": 97.0,
        "Latitude(deg)": -1.54648127329447,
        "Longitude(deg)": 78.09140915487586,
        "Mean Anomaly(deg)": 181.44240030361183,
        "RAAN(deg)": 0.0043820395083763565,
        "Satellite Name": "Starlink Shell 3 1609",
        "Satellite Number": 1609,
        "Semi-Major Axis(m)": 6938478.169268562,
        "Time(s)": 420
    },
    {
        "Altitude(m)": 566761.5508246098,
        "Argument of Periapsis(deg)": -0.01705150725733006,
        "Eccentricity": 0.0,
        "Inclination(deg)": 97.0,
        "Latitude(deg)": -2.170816919330329,
        "Longitude(deg)": 77.97341160935913,
        "Mean Anomaly(deg)": 182.06787650131687,
        "RAAN(deg)": 0.004486373782385317,
        "Satellite Name": "Starlink Shell 3 1609",
        "Satellite Number": 1609,
        "Semi-Major Axis(m)": 6938478.169268562,
        "Time(s)": 430
    },
    {
        "Altitude(m)": 566859.5620739905,
        "Argument of Periapsis(deg)": -0.017448053937733084,
        "Eccentricity": 0.0,
        "Inclination(deg)": 97.0,
        "Latitude(deg)": -2.795127495524249,
        "Longitude(deg)": 77.85535373973033,
        "Mean Anomaly(deg)": 182.69335269902191,
        "RAAN(deg)": 0.004590708056394278,
        "Satellite Name": "Starlink Shell 3 1609",
        "Satellite Number": 1609,
        "Semi-Major Axis(m)": 6938478.169268562,
        "Time(s)": 440
    },
    {
        "Altitude(m)": 566961.8022905946,
        "Argument of Periapsis(deg)": -0.017844600618136107,
        "Eccentricity": 0.0,
        "Inclination(deg)": 97.0,
        "Latitude(deg)": -3.4194100138102956,
        "Longitude(deg)": 77.73721737304429,
        "Mean Anomaly(deg)": 183.31882889672698,
        "RAAN(deg)": 0.0046950423304032395,
        "Satellite Name": "Starlink Shell 3 1609",
        "Satellite Number": 1609,
        "Semi-Major Axis(m)": 6938478.169268562,
        "Time(s)": 450
    },
    {
        "Altitude(m)": 567068.2512224608,
        "Argument of Periapsis(deg)": -0.018241147298539134,
        "Eccentricity": 0.0,
        "Inclination(deg)": 97.0,
        "Latitude(deg)": -4.043661488033853,
        "Longitude(deg)": 77.6189842636691,
        "Mean Anomaly(deg)": 183.94430509443202,
        "RAAN(deg)": 0.0047993766044122,
        "Satellite Name": "Starlink Shell 3 1609",
        "Satellite Number": 1609,
        "Semi-Major Axis(m)": 6938478.169268562,
        "Time(s)": 460
    },
    {
        "Altitude(m)": 567178.8865635053,
        "Argument of Periapsis(deg)": -0.018637693978942157,
        "Eccentricity": 0.0,
        "Inclination(deg)": 97.0,
        "Latitude(deg)": -4.667878933848373,
        "Longitude(deg)": 77.50063658054377,
        "Mean Anomaly(deg)": 184.56978129213707,
        "RAAN(deg)": 0.00490371087842116,
        "Satellite Name": "Starlink Shell 3 1609",
        "Satellite Number": 1609,
        "Semi-Major Axis(m)": 6938478.169268562,
        "Time(s)": 470
    },
    {
        "Altitude(m)": 567293.6839614896,
        "Argument of Periapsis(deg)": -0.019034240659345183,
        "Eccentricity": 0.0,
        "Inclination(deg)": 97.0,
        "Latitude(deg)": -5.292059368597844,
        "Longitude(deg)": 77.38215588138574,
        "Mean Anomaly(deg)": 185.1952574898421,
        "RAAN(deg)": 0.0050080451524301215,
        "Satellite Name": "Starlink Shell 3 1609",
        "Satellite Number": 1609,
        "Semi-Major Axis(m)": 6938478.169268562,
        "Time(s)": 480
    },
    {
        "Altitude(m)": 567412.617027063,
        "Argument of Periapsis(deg)": -0.019430787339748207,
        "Eccentricity": 0.0,
        "Inclination(deg)": 97.0,
        "Latitude(deg)": -5.916199811181307,
        "Longitude(deg)": 77.26352359956086,
        "Mean Anomaly(deg)": 185.82073368754715,
        "RAAN(deg)": 0.005112379426439082,
        "Satellite Name": "Starlink Shell 3 1609",
        "Satellite Number": 1609,
        "Semi-Major Axis(m)": 6938478.169268562,
        "Time(s)": 490
    },
    {
        "Altitude(m)": 567535.6573438034,
        "Argument of Periapsis(deg)": -0.019827334020151237,
        "Eccentricity": 0.0,
        "Inclination(deg)": 97.0,
        "Latitude(deg)": -6.54029728189744,
        "Longitude(deg)": 77.1447215307061,
        "Mean Anomaly(deg)": 186.4462098852522,
        "RAAN(deg)": 0.005216713700448044,
        "Satellite Name": "Starlink Shell 3 1609",
        "Satellite Number": 1609,
        "Semi-Major Axis(m)": 6938478.169268562,
        "Time(s)": 500
    },
    {
        "Altitude(m)": 567662.7744792963,
        "Argument of Periapsis(deg)": -0.020223880700554257,
        "Eccentricity": 0.0,
        "Inclination(deg)": 97.0,
        "Latitude(deg)": -7.164348802266774,
        "Longitude(deg)": 77.02573080619749,
        "Mean Anomaly(deg)": 187.07168608295726,
        "RAAN(deg)": 0.005321047974457004,
        "Satellite Name": "Starlink Shell 3 1609",
        "Satellite Number": 1609,
        "Semi-Major Axis(m)": 6938478.169268562,
        "Time(s)": 510
    },
    {
        "Altitude(m)": 567793.9359972598,
        "Argument of Periapsis(deg)": -0.020620427380957283,
        "Eccentricity": 0.0,
        "Inclination(deg)": 97.0,
        "Latitude(deg)": -7.78835139482792,
        "Longitude(deg)": 76.90653237917078,
        "Mean Anomaly(deg)": 187.6971622806623,
        "RAAN(deg)": 0.005425382248465965,
        "Satellite Name": "Starlink Shell 3 1609",
        "Satellite Number": 1609,
        "Semi-Major Axis(m)": 6938478.169268562,
        "Time(s)": 520
    },
    {
        "Altitude(m)": 567929.1074706232,
        "Argument of Periapsis(deg)": -0.021016974061360306,
        "Eccentricity": 0.0,
        "Inclination(deg)": 97.0,
        "Latitude(deg)": -8.412302082905022,
        "Longitude(deg)": 76.78710751018457,
        "Mean Anomaly(deg)": 188.32263847836734,
        "RAAN(deg)": 0.005529716522474927,
        "Satellite Name": "Starlink Shell 3 1609",
        "Satellite Number": 1609,
        "Semi-Major Axis(m)": 6938478.169268562,
        "Time(s)": 530
    },
    {
        "Altitude(m)": 568068.2524956912,
        "Argument of Periapsis(deg)": -0.021413520741763333,
        "Eccentricity": 0.0,
        "Inclination(deg)": 97.0,
        "Latitude(deg)": -9.036197890344587,
        "Longitude(deg)": 76.66743673961334,
        "Mean Anomaly(deg)": 188.94811467607238,
        "RAAN(deg)": 0.005634050796483887,
        "Satellite Name": "Starlink Shell 3 1609",
        "Satellite Number": 1609,
        "Semi-Major Axis(m)": 6938478.169268562,
        "Time(s)": 540
    },
    {
        "Altitude(m)": 568211.3327072432,
        "Argument of Periapsis(deg)": -0.021810067422166356,
        "Eccentricity": 0.0,
        "Inclination(deg)": 97.0,
        "Latitude(deg)": -9.660035841217212,
        "Longitude(deg)": 76.5475003724752,
        "Mean Anomaly(deg)": 189.57359087377742,
        "RAAN(deg)": 0.005738385070492848,
        "Satellite Name": "Starlink Shell 3 1609",
        "Satellite Number": 1609,
        "Semi-Major Axis(m)": 6938478.169268562,
        "Time(s)": 550
    },
    {
        "Altitude(m)": 568358.3077946531,
        "Argument of Periapsis(deg)": -0.022206614102569383,
        "Eccentricity": 0.0,
        "Inclination(deg)": 97.0,
        "Latitude(deg)": -10.283812959481319,
        "Longitude(deg)": 76.42727896277975,
        "Mean Anomaly(deg)": 190.1990670714825,
        "RAAN(deg)": 0.005842719344501809,
        "Satellite Name": "Starlink Shell 3 1609",
        "Satellite Number": 1609,
        "Semi-Major Axis(m)": 6938478.169268562,
        "Time(s)": 560
    }
]